NORAD_CAT_ID,OBJECT_NAME,OBJECT_TYPE,EPOCH,MEAN_MOTION,ECCENTRICITY,INCLINATION,RA_OF_ASC_NODE,ARG_OF_PERICENTER,MEAN_ANOMALY,BSTAR,MEAN_MOTION_DOT,MEAN_MOTION_DDOT,TLE_LINE0,TLE_LINE1,TLE_LINE2,SEMIMAJOR_AXIS,PERIOD,APOGEE,PERIGEE,DECAYED
49755.0,STARLINK-3210,PAYLOAD,2024-03-24 19:20:27,15.08859862,0.0002123,53.215,118.4047,82.4262,277.6972,0.00064338,9.972e-05,0.0,0 STARLINK-3210,1 49755U 21115AH  24084.80587370  .00009972  00000-0  64338-3 0  9990,2 49755  53.2150 118.4047 0002123  82.4262 277.6972 15.08859862128727,6917.82,95.436,541.153,538.216,0.0
49755.0,STARLINK-3210,PAYLOAD,2024-03-25 01:42:00,15.08842244,0.0001205,53.2152,117.2177,94.457,265.656,0.00023691,3.485e-05,0.0,0 STARLINK-3210,1 49755U 21115AH  24085.07083670  .00003485  00000-0  23691-3 0  9994,2 49755  53.2152 117.2177 0001205  94.4570 265.6560 15.08842244128765,6917.874,95.437,540.572,538.905,0.0
49755.0,STARLINK-3210,PAYLOAD,2024-03-25 19:11:15,15.08835075,0.0001516,53.2151,113.9449,95.5677,264.5488,0.0017526,0.00027711,0.0,0 STARLINK-3210,1 49755U 21115AH  24085.79948377  .00027711  00000-0  17526-2 0  9994,2 49755  53.2151 113.9449 0001516  95.5677 264.5488 15.08835075128877,6917.895,95.438,540.809,538.712,0.0
49755.0,STARLINK-3210,PAYLOAD,2024-03-26 11:05:07,15.08828124,0.0001458,53.2143,110.9714,95.8903,264.2255,0.0021017,0.00033308,0.0,0 STARLINK-3210,1 49755U 21115AH  24086.46189658  .00033308  00000-0  21017-2 0  9997,2 49755  53.2143 110.9714 0001458  95.8903 264.2255 15.08828124128977,6917.917,95.438,540.79,538.773,0.0
49755.0,STARLINK-3210,PAYLOAD,2024-03-26 19:02:03,15.08827852,0.0001582,53.2152,109.4835,100.5996,259.5175,0.00091322,0.00014271,0.0,0 STARLINK-3210,1 49755U 21115AH  24086.79309910  .00014271  00000-0  91322-3 0  9993,2 49755  53.2152 109.4835 0001582 100.5996 259.5175 15.08827852129020,6917.918,95.438,540.877,538.688,0.0
49755.0,STARLINK-3210,PAYLOAD,2024-03-27 07:45:08,15.08849443,0.0001542,53.2145,107.1052,96.3027,263.8141,0.0010216,0.00016012,0.0,0 STARLINK-3210,1 49755U 21115AH  24087.32301725  .00016012  00000-0  10216-2 0  9996,2 49755  53.2145 107.1052 0001542  96.3027 263.8141 15.08849443127996,6917.852,95.437,540.783,538.65,0.0
49755.0,STARLINK-3210,PAYLOAD,2024-03-28 04:25:08,15.08864914,0.0001501,53.2146,103.2399,92.9185,267.1979,0.0006437,9.978e-05,0.0,0 STARLINK-3210,1 49755U 21115AH  24088.18412746  .00009978  00000-0  64370-3 0  9991,2 49755  53.2146 103.2399 0001501  92.9185 267.1979 15.08864914129235,6917.804,95.436,540.708,538.631,0.0
49755.0,STARLINK-3210,PAYLOAD,2024-03-28 10:46:40,15.08872343,0.0001472,53.2149,102.0506,92.0099,268.1061,0.00073747,0.00011479,0.0,0 STARLINK-3210,1 49755U 21115AH  24088.44908205  .00011479  00000-0  73747-3 0  9997,2 49755  53.2149 102.0506 0001472  92.0099 268.1061 15.08872343128166,6917.782,95.436,540.665,538.628,0.0
49755.0,STARLINK-3210,PAYLOAD,2024-03-29 04:15:54,15.08853849,0.0001889,53.2149,98.7725,109.5095,250.6101,-5.8715e-05,-1.223e-05,0.0,0 STARLINK-3210,1 49755U 21115AH  24089.17771931 -.00001223  00000-0 -58715-4 0  9999,2 49755  53.2149  98.7725 0001889 109.5095 250.6101 15.08853849129388,6917.838,95.437,541.01,538.396,0.0
49755.0,STARLINK-3210,PAYLOAD,2024-03-29 07:26:41,15.08850996,0.0001559,53.2148,98.1809,82.1824,277.9345,4.7674e-05,4.71e-06,0.0,0 STARLINK-3210,1 49755U 21115AH  24089.31020305  .00000471  00000-0  47674-4 0  9991,2 49755  53.2148  98.1809 0001559  82.1824 277.9345 15.08850996128295,6917.847,95.437,540.79,538.633,0.0
49755.0,STARLINK-3210,PAYLOAD,2024-03-29 16:59:00,15.08847608,0.0001459,53.2157,96.3995,81.8145,278.3012,2.3029e-05,7.9e-07,0.0,0 STARLINK-3210,1 49755U 21115AH  24089.70764185  .00000079  00000-0  23029-4 0  9997,2 49755  53.2157  96.3995 0001459  81.8145 278.3012 15.08847608129464,6917.857,95.437,540.731,538.713,0.0
49755.0,STARLINK-3210,PAYLOAD,2024-03-30 07:17:28,15.08851989,0.0001525,53.2165,93.726,85.7144,274.4023,2.8951e-05,1.73e-06,0.0,0 STARLINK-3210,1 49755U 21115AH  24090.30379826  .00000173  00000-0  28951-4 0  9993,2 49755  53.2165  93.7260 0001525  85.7144 274.4023 15.08851989128448,6917.844,95.437,540.764,538.654,0.0
49755.0,STARLINK-3210,PAYLOAD,2024-03-30 16:49:47,15.08841022,0.0001511,53.216,91.9423,91.3603,268.7562,-8.0727e-05,-1.573e-05,0.0,0 STARLINK-3210,1 49755U 21115AH  24090.70124195 -.00001573  00000-0 -80727-4 0  9990,2 49755  53.2160  91.9423 0001511  91.3603 268.7562 15.08841022129613,6917.877,95.437,540.788,538.697,0.0
49755.0,STARLINK-3210,PAYLOAD,2024-03-31 05:32:53,15.08835224,0.0001554,53.2174,89.5641,95.0421,265.0748,7.6032e-05,9.22e-06,0.0,0 STARLINK-3210,1 49755U 21115AH  24091.23117020  .00000922  00000-0  76032-4 0  9997,2 49755  53.2174  89.5641 0001554  95.0421 265.0748 15.08835224129690,6917.895,95.438,540.835,538.685,0.0
49755.0,STARLINK-3210,PAYLOAD,2024-03-31 10:19:02,15.08838779,0.0001477,53.217,88.6704,86.6767,273.4394,7.4579e-05,8.99e-06,0.0,0 STARLINK-3210,1 49755U 21115AH  24091.42988747  .00000899  00000-0  74579-4 0  9997,2 49755  53.2170  88.6704 0001477  86.6767 273.4394 15.08838779128618,6917.884,95.438,540.771,538.727,0.0
49755.0,STARLINK-3210,PAYLOAD,2024-03-31 16:40:34,15.08837089,0.0001497,53.2178,87.4813,89.2466,270.8697,5.9813e-05,6.64e-06,0.0,0 STARLINK-3210,1 49755U 21115AH  24091.69484838  .00000664  00000-0  59813-4 0  9992,2 49755  53.2178  87.4813 0001497  89.2466 270.8697 15.08837089128655,6917.889,95.438,540.79,538.719,0.0
49755.0,STARLINK-3210,PAYLOAD,2024-04-01 06:59:02,15.08845367,0.0001419,53.217,84.8043,89.2336,270.8819,5.4388e-05,5.78e-06,0.0,0 STARLINK-3210,1 49755U 21115AH  24092.29100368  .00000578  00000-0  54388-4 0  9998,2 49755  53.2170  84.8043 0001419  89.2336 270.8819 15.08845367129850,6917.864,95.437,540.711,538.747,0.0
49755.0,STARLINK-3210,PAYLOAD,2024-04-02 05:14:27,15.08836343,0.0001369,53.2168,80.6405,87.1481,272.9668,0.00010729,1.42e-05,0.0,0 STARLINK-3210,1 49755U 21115AH  24093.21836886  .00001420  00000-0  10729-3 0  9999,2 49755  53.2168  80.6405 0001369  87.1481 272.9668 15.08836343129999,6917.892,95.438,540.704,538.81,0.0
49755.0,STARLINK-3210,PAYLOAD,2024-04-02 06:49:50,15.08837899,0.0001309,53.2167,80.3443,86.2519,273.8622,9.9446e-05,1.295e-05,0.0,0 STARLINK-3210,1 49755U 21115AH  24093.28460829  .00001295  00000-0  99446-4 0  9990,2 49755  53.2167  80.3443 0001309  86.2519 273.8622 15.08837899128898,6917.887,95.438,540.657,538.846,0.0
49755.0,STARLINK-3210,PAYLOAD,2024-04-02 22:43:41,15.08838314,0.0001618,53.2169,77.3715,80.7234,279.3941,6.98e-05,8.23e-06,0.0,0 STARLINK-3210,1 49755U 21115AH  24093.94700977  .00000823  00000-0  69800-4 0  9991,2 49755  53.2169  77.3715 0001618  80.7234 279.3941 15.08838314128993,6917.886,95.438,540.87,538.631,0.0
49755.0,STARLINK-3210,PAYLOAD,2024-04-03 08:16:00,15.08843283,0.0001331,53.2168,75.5868,91.5787,268.5357,3.0067e-05,1.91e-06,0.0,0 STARLINK-3210,1 49755U 21115AH  24094.34444647  .00000191  00000-0  30067-4 0  9996,2 49755  53.2168  75.5868 0001331  91.5787 268.5357 15.08843283130160,6917.87,95.437,540.656,538.815,0.0
49755.0,STARLINK-3210,PAYLOAD,2024-04-03 16:12:56,15.08839579,0.000135,53.2169,74.0979,91.2628,268.8519,1.3237e-05,-7.7e-07,0.0,0 STARLINK-3210,1 49755U 21115AH  24094.67564896 -.00000077  00000-0  13237-4 0  9995,2 49755  53.2169  74.0979 0001350  91.2628 268.8519 15.08839579129108,6917.882,95.438,540.681,538.813,0.0
49755.0,STARLINK-3210,PAYLOAD,2024-04-04 08:06:47,15.08839654,0.0001383,53.217,71.124,93.5378,266.5772,5.6052e-05,6.04e-06,0.0,0 STARLINK-3210,1 49755U 21115AH  24095.33804798  .00000604  00000-0  56052-4 0  9994,2 49755  53.2170  71.1240 0001383  93.5378 266.5772 15.08839654129203,6917.881,95.438,540.703,538.79,0.0
49755.0,STARLINK-3210,PAYLOAD,2024-04-05 07:57:33,15.08845258,0.0001326,53.2169,66.6636,91.6488,268.4656,8.7297e-05,1.102e-05,0.0,0 STARLINK-3210,1 49755U 21115AH  24096.33164281  .00001102  00000-0  87297-4 0  9990,2 49755  53.2169  66.6636 0001326  91.6488 268.4656 15.08845258129352,6917.864,95.437,540.647,538.812,0.0
49755.0,STARLINK-3210,PAYLOAD,2024-04-06 04:37:35,15.08837286,0.0001301,53.2179,62.7986,88.2705,271.8436,4.1672e-05,3.75e-06,0.0,0 STARLINK-3210,1 49755U 21115AH  24097.19276996  .00000375  00000-0  41672-4 0  9990,2 49755  53.2179  62.7986 0001301  88.2705 271.8436 15.08837286130599,6917.889,95.438,540.654,538.854,0.0
49755.0,STARLINK-3210,PAYLOAD,2024-04-06 07:48:21,15.08839531,0.000132,53.2179,62.204,87.9602,272.1541,7.5407e-06,-1.68e-06,0.0,0 STARLINK-3210,1 49755U 21115AH  24097.32524976 -.00000168  00000-0  75407-5 0  9994,2 49755  53.2179  62.2040 0001320  87.9602 272.1541 15.08839531129503,6917.882,95.438,540.66,538.834,0.0
49755.0,STARLINK-3210,PAYLOAD,2024-04-06 22:06:50,15.08837158,0.0001256,53.2176,59.5269,86.4455,273.6681,-6.4799e-05,-1.319e-05,0.0,0 STARLINK-3210,1 49755U 21115AH  24097.92141528 -.00001319  00000-0 -64799-4 0  9999,2 49755  53.2176  59.5269 0001256  86.4455 273.6681 15.08837158129593,6917.889,95.438,540.623,538.885,0.0
49755.0,STARLINK-3210,PAYLOAD,2024-04-07 07:39:08,15.088413,0.0001278,53.2178,57.7429,86.5358,273.578,-2.1289e-05,-6.27e-06,0.0,0 STARLINK-3210,1 49755U 21115AH  24098.31885168 -.00000627  00000-0 -21289-4 0  9996,2 49755  53.2178  57.7429 0001278  86.5358 273.5780 15.08841300130764,6917.876,95.437,540.626,538.857,0.0
49755.0,STARLINK-3210,PAYLOAD,2024-04-07 14:00:41,15.08839426,0.000123,53.2177,56.5547,90.4575,269.6558,-1.6222e-05,-5.46e-06,0.0,0 STARLINK-3210,1 49755U 21115AH  24098.58381267 -.00000546  00000-0 -16222-4 0  9997,2 49755  53.2177  56.5547 0001230  90.4575 269.6558 15.08839426129699,6917.882,95.438,540.598,538.896,0.0
49755.0,STARLINK-3210,PAYLOAD,2024-04-08 04:19:10,15.08835973,0.0001269,53.2186,53.8795,94.7904,265.3233,1.214e-05,-9.5e-07,0.0,0 STARLINK-3210,1 49755U 21115AH  24099.17997747 -.00000095  00000-0  12140-4 0  9992,2 49755  53.2186  53.8795 0001269  94.7904 265.3233 15.08835973130899,6917.893,95.438,540.636,538.88,0.0
